SL-14 R/B               
1 16496U 86006B   26077.00011658  .00000665  00000+0  68132-4 0  9999
2 16496  82.5237 251.9133 0075192 244.7186 114.6227 14.86826968150440
COSMOS 1743             
1 16719U 86034A   26076.98692226  .00030736  00000+0  39131-3 0  9998
2 16719  82.5281  65.1165 0002095 218.2306 141.8802 15.59182942181543
SL-14 R/B               
1 16792U 86046B   26077.09197765  .00000419  00000+0  45462-4 0  9993
2 16792  82.4786  72.2399 0022599 196.5632 163.4849 14.85598529127655
SL-14 R/B               
1 16882U 86055B   26077.15427843  .00000432  00000+0  47009-4 0  9997
2 16882  82.5185 118.7171 0017595 307.1009 112.5107 14.85650352120626
AJISAI (EGS)            
1 16908U 86061A   26077.29748490 -.00000097  00000+0  14377-5 0  9993
2 16908  50.0089  66.8774 0011296 309.2167  71.4798 12.44515707469071
SL-14 R/B               
1 17567U 87024B   26077.25697311  .00000452  00000+0  48710-4 0  9997
2 17567  82.5244  84.7088 0017001 229.2070 130.7672 14.86140339 89405
COSMOS 1833             
1 17589U 87027A   26077.07188206 -.00000217  00000+0 -89952-4 0  9996
2 17589  70.9202 308.4020 0023837 202.5392 157.4684 14.13052219 11505
SL-16 R/B               
1 17590U 87027B   26077.23300346 -.00000050  00000+0 -12293-5 0  9997
2 17590  70.9991 258.4901 0003109 123.2145 236.9277 14.17166772 16554
SL-14 R/B               
1 17912U 87038B   26077.05425841  .00000403  00000+0  43832-4 0  9997
2 17912  82.4988 288.9266 0020333 133.9003 226.3896 14.85376559 80470
COSMOS 1844             
1 17973U 87041A   26077.09815329 -.00000009  00000+0  20536-4 0  9995
2 17973  70.9008  16.4401 0030447   5.5792 354.5663 14.14551154  4776
SL-14 R/B               
1 18153U 87055B   26077.09702807  .00000463  00000+0  50544-4 0  9992
2 18153  82.5027 341.1098 0020376 350.3576   9.7245 14.85638719 71183
COSMOS 1867             
1 18187U 87060A   26076.96437650 -.00000040  00000+0  22697-4 0  9991
2 18187  65.0098 283.5317 0014603 279.1420  80.8012 14.31504267 21121
SL-14 R/B               
1 18749U 88001B   26077.29501582  .00000512  00000+0  56363-4 0  9994
2 18749  82.5160 187.2687 0017416 205.6283 154.4072 14.85538013 43308
COSMOS 1933             
1 18958U 88020A   26077.16156896  .00003338  00000+0  16243-3 0  9998
2 18958  82.5101 242.5275 0004534 154.3030 205.8430 15.18062757 51515
SL-3 R/B                
1 19046U 88032B   26077.22503848  .00004401  00000+0  20592-3 0  9994
2 19046  97.5198  60.4463 0025188 200.3426 159.6808 15.20005937 53406
SL-16 R/B               
1 19120U 88039B   26077.29489602  .00000011  00000+0  28042-4 0  9994
2 19120  71.0147  50.3501 0023197 321.8864  38.0619 14.19617718959604
COSMOS 1953             
1 19210U 88050A   26077.13560916  .00005801  00000+0  20650-3 0  9996
2 19210  82.5101 149.7532 0012664  96.0654 264.2029 15.28664534 39070
